IRIDIUM 106             
1 41917U 17003A   23254.47526446  .00000366  00000+0  12367-3 0  9993
2 41917  86.4020 150.5236 0002064  75.3834 284.7591 14.34216926348489
IRIDIUM 103             
1 41918U 17003B   23254.46257440  .00000316  00000+0  10589-3 0  9997
2 41918  86.4020 150.4318 0002404  82.3110 277.8359 14.34214539348509
IRIDIUM 109             
1 41919U 17003C   23254.46891379  .00000294  00000+0  97850-4 0  9995
2 41919  86.4021 150.4719 0002230  89.1628 270.9823 14.34219633348478
IRIDIUM 102             
1 41920U 17003D   23254.43720047  .00000366  00000+0  12368-3 0  9997
2 41920  86.4018 150.4302 0002174  85.2232 274.9212 14.34220164348555
IRIDIUM 105             
1 41921U 17003E   23254.54745931  .00000354  00000+0  11919-3 0  9997
2 41921  86.3953 118.8231 0002142  85.4654 274.6786 14.34220262350428
IRIDIUM 104             
1 41922U 17003F   23254.24058516  .00000320  00000+0  10720-3 0  9993
2 41922  86.4020 150.5395 0002239  82.7240 277.4210 14.34218822348516
IRIDIUM 114             
1 41923U 17003G   23254.45622311  .00000358  00000+0  12064-3 0  9991
2 41923  86.4020 150.4363 0001909  77.4492 282.6917 14.34221659348529
IRIDIUM 108             
1 41924U 17003H   23254.55428747  .00000288  00000+0  95671-4 0  9998
2 41924  86.3948 118.7631 0002117  77.1292 283.0140 14.34219250350395
